NORAD_CAT_ID,OBJECT_NAME,OBJECT_TYPE,EPOCH,MEAN_MOTION,ECCENTRICITY,INCLINATION,RA_OF_ASC_NODE,ARG_OF_PERICENTER,MEAN_ANOMALY,BSTAR,MEAN_MOTION_DOT,MEAN_MOTION_DDOT,TLE_LINE0,TLE_LINE1,TLE_LINE2,SEMIMAJOR_AXIS,PERIOD,APOGEE,PERIGEE,DECAYED
55302.0,STARLINK-5321,PAYLOAD,2024-05-07 11:59:45,14.98326351,0.0002798,70.0002,276.6704,268.9186,91.1653,-1.0134e-06,-1.05e-06,0.0,0 STARLINK-5321,1 55302U 23010AK  24128.49982979 -.00000105  00000-0 -10134-5 0  9997,2 55302  70.0002 276.6704 0002798 268.9186  91.1653 14.98326351 72426,6950.204,96.107,574.014,570.125,0.0
55302.0,STARLINK-5321,PAYLOAD,2024-05-07 13:35:53,14.98326176,0.0002784,70.0005,276.502,269.3183,90.7657,-1.3784e-05,-2.57e-06,0.0,0 STARLINK-5321,1 55302U 23010AK  24128.56659041 -.00000257  00000-0 -13784-4 0  9997,2 55302  70.0005 276.5020 0002784 269.3183  90.7657 14.98326176 72745,6950.205,96.107,574.005,570.135,0.0
55302.0,STARLINK-5321,PAYLOAD,2024-05-07 20:00:25,14.98325703,0.0002636,70.0003,275.8286,257.5858,102.5006,-5.3284e-05,-7.29e-06,0.0,0 STARLINK-5321,1 55302U 23010AK  24128.83363166 -.00000729  00000-0 -53284-4 0  9990,2 55302  70.0003 275.8286 0002636 257.5858 102.5006 14.98325703 72782,6950.206,96.107,573.903,570.239,0.0
55302.0,STARLINK-5321,PAYLOAD,2024-05-08 12:01:45,14.98333242,0.0002981,69.9989,274.143,270.7474,89.3344,-5.3013e-05,-7.26e-06,0.0,0 STARLINK-5321,1 55302U 23010AK  24129.50122623 -.00000726  00000-0 -53013-4 0  9993,2 55302  69.9989 274.1430 0002981 270.7474  89.3344 14.98333242 72570,6950.183,96.107,574.12,569.976,0.0
55302.0,STARLINK-5321,PAYLOAD,2024-05-08 13:37:54,14.98332679,0.0003019,69.9989,273.9748,270.1295,89.9518,-5.3995e-05,-7.37e-06,0.0,0 STARLINK-5321,1 55302U 23010AK  24129.56798637 -.00000737  00000-0 -53995-4 0  9994,2 55302  69.9989 273.9748 0003019 270.1295  89.9518 14.98332679 72894,6950.185,96.107,574.148,569.951,0.0
55302.0,STARLINK-5321,PAYLOAD,2024-05-08 20:02:25,14.98338418,0.00029,69.9993,273.302,268.8546,91.2281,5.1562e-06,-3.1e-07,0.0,0 STARLINK-5321,1 55302U 23010AK  24129.83502008 -.00000031  00000-0  51562-5 0  9994,2 55302  69.9993 273.3020 0002900 268.8546  91.2281 14.98338418 72932,6950.167,96.106,574.047,570.016,0.0
55302.0,STARLINK-5321,PAYLOAD,2024-05-09 12:03:46,14.98326876,0.0002769,69.9998,271.6191,267.6758,92.4084,2.8386e-05,2.46e-06,0.0,0 STARLINK-5321,1 55302U 23010AK  24130.50262623  .00000246  00000-0  28386-4 0  9990,2 55302  69.9998 271.6191 0002769 267.6758  92.4084 14.98326876 72728,6950.203,96.107,573.992,570.143,0.0
55302.0,STARLINK-5321,PAYLOAD,2024-05-09 13:39:54,14.98326652,0.0002775,69.9998,271.4508,267.6279,92.4563,2.4812e-05,2.03e-06,0.0,0 STARLINK-5321,1 55302U 23010AK  24130.56938656  .00000203  00000-0  24812-4 0  9995,2 55302  69.9998 271.4508 0002775 267.6279  92.4563 14.98326652 73043,6950.203,96.107,573.997,570.14,0.0
55302.0,STARLINK-5321,PAYLOAD,2024-05-09 18:28:19,14.98327239,0.0002774,69.9998,270.9459,265.9665,94.1177,6.7274e-05,7.1e-06,0.0,0 STARLINK-5321,1 55302U 23010AK  24130.76966516  .00000710  00000-0  67274-4 0  9995,2 55302  69.9998 270.9459 0002774 265.9665  94.1177 14.98327239 73076,6950.201,96.107,573.994,570.138,0.0
55302.0,STARLINK-5321,PAYLOAD,2024-05-10 02:28:58,14.98372185,0.0002998,69.9999,270.1044,263.7022,96.3796,-0.0007817,-9.418e-05,0.0,0 STARLINK-5321,1 55302U 23010AK  24131.10345635 -.00009418  00000-0 -78170-3 0  9999,2 55302  69.9999 270.1044 0002998 263.7022  96.3796 14.98372185 72812,6950.062,96.104,574.011,569.844,0.0
55302.0,STARLINK-5321,PAYLOAD,2024-05-10 12:05:48,14.98325073,0.0003206,69.9998,269.0946,272.8523,87.2269,-3.0154e-05,-4.53e-06,0.0,0 STARLINK-5321,1 55302U 23010AK  24131.50402979 -.00000453  00000-0 -30154-4 0  9999,2 55302  69.9998 269.0946 0003206 272.8523  87.2269 14.98325073 72873,6950.208,96.107,574.301,569.845,0.0
55302.0,STARLINK-5321,PAYLOAD,2024-05-10 15:18:04,14.98327773,0.0002915,69.9997,268.7578,270.627,89.4555,-4.1266e-05,-5.85e-06,0.0,0 STARLINK-5321,1 55302U 23010AK  24131.63754880 -.00000585  00000-0 -41266-4 0  9996,2 55302  69.9997 268.7578 0002915 270.6270  89.4555 14.98327773 73209,6950.2,96.107,574.091,570.039,0.0
55302.0,STARLINK-5321,PAYLOAD,2024-05-10 18:30:20,14.98329248,0.0002984,69.9998,268.4212,271.6821,88.3996,-7.571e-06,-1.83e-06,0.0,0 STARLINK-5321,1 55302U 23010AK  24131.77106707 -.00000183  00000-0 -75710-5 0  9996,2 55302  69.9998 268.4212 0002984 271.6821  88.3996 14.98329248 73229,6950.195,96.107,574.134,569.986,0.0
55302.0,STARLINK-5321,PAYLOAD,2024-05-11 12:07:50,14.98295461,0.0002248,69.9998,266.5696,255.0218,105.0692,-0.00039909,-4.847e-05,0.0,0 STARLINK-5321,1 55302U 23010AK  24132.50544972 -.00004847  00000-0 -39909-3 0  9997,2 55302  69.9998 266.5696 0002248 255.0218 105.0692 14.98295461 73020,6950.3,96.109,573.727,570.602,0.0
55302.0,STARLINK-5321,PAYLOAD,2024-05-11 18:32:23,14.9829852,0.0002387,70.0,265.8953,266.1584,93.9302,-0.00034303,-4.18e-05,0.0,0 STARLINK-5321,1 55302U 23010AK  24132.77249150 -.00004180  00000-0 -34303-3 0  9999,2 55302  70.0000 265.8953 0002387 266.1584  93.9302 14.98298520 73378,6950.29,96.109,573.814,570.496,0.0
55302.0,STARLINK-5321,PAYLOAD,2024-05-12 12:09:53,14.98295565,0.0002094,70.0018,264.0403,264.4555,95.6366,-0.00022161,-2.734e-05,0.0,0 STARLINK-5321,1 55302U 23010AK  24133.50686638 -.00002734  00000-0 -22161-3 0  9999,2 55302  70.0018 264.0403 0002094 264.4555  95.6366 14.98295565 73175,6950.299,96.109,573.62,570.709,0.0
55302.0,STARLINK-5321,PAYLOAD,2024-05-12 13:46:01,14.98290934,0.0002241,70.0023,263.8726,264.2711,95.8193,-0.0001441,-1.81e-05,0.0,0 STARLINK-5321,1 55302U 23010AK  24133.57362872 -.00001810  00000-0 -14410-3 0  9999,2 55302  70.0023 263.8726 0002241 264.2711  95.8193 14.98290934 73492,6950.314,96.11,573.736,570.621,0.0
55302.0,STARLINK-5321,PAYLOAD,2024-05-12 18:34:24,14.98313289,0.0003238,69.9986,263.3711,271.4265,88.6523,-0.00016467,-2.056e-05,0.0,0 STARLINK-5321,1 55302U 23010AK  24133.77389673 -.00002056  00000-0 -16467-3 0  9996,2 55302  69.9986 263.3711 0003238 271.4265  88.6523 14.98313289 73213,6950.245,96.108,574.36,569.859,0.0
55302.0,STARLINK-5321,PAYLOAD,2024-05-13 12:11:51,14.98351554,0.0003203,69.9977,261.5176,266.4557,93.6236,-0.00033211,-4.056e-05,0.0,0 STARLINK-5321,1 55302U 23010AK  24134.50824034 -.00004056  00000-0 -33211-3 0  9991,2 55302  69.9977 261.5176 0003203 266.4557  93.6236 14.98351554 73324,6950.126,96.106,574.217,569.765,0.0
55302.0,STARLINK-5321,PAYLOAD,2024-05-13 15:24:07,14.98356031,0.0003081,69.9982,261.182,268.9189,91.1617,-0.00025431,-3.128e-05,0.0,0 STARLINK-5321,1 55302U 23010AK  24134.64175428 -.00003128  00000-0 -25431-3 0  9996,2 55302  69.9982 261.1820 0003081 268.9189  91.1617 14.98356031 73651,6950.112,96.105,574.119,569.836,0.0
55302.0,STARLINK-5321,PAYLOAD,2024-05-14 12:13:52,14.9833358,0.0002157,70.0007,258.9929,271.2579,88.8333,0.00053924,6.347e-05,0.0,0 STARLINK-5321,1 55302U 23010AK  24135.50963154  .00006347  00000-0  53924-3 0  9995,2 55302  70.0007 258.9929 0002157 271.2579  88.8333 14.98333580 73471,6950.182,96.107,573.546,570.548,0.0
55302.0,STARLINK-5321,PAYLOAD,2024-05-15 12:15:53,14.98338473,0.000256,70.0004,256.4682,276.0883,83.9985,-0.00015877,-1.987e-05,0.0,0 STARLINK-5321,1 55302U 23010AK  24136.51103582 -.00001987  00000-0 -15877-3 0  9990,2 55302  70.0004 256.4682 0002560 276.0883  83.9985 14.98338473 73628,6950.167,96.106,573.811,570.252,0.0
55302.0,STARLINK-5321,PAYLOAD,2024-05-15 13:52:01,14.9833994,0.0002492,70.0004,256.2999,276.863,83.2246,-0.00014231,-1.791e-05,0.0,0 STARLINK-5321,1 55302U 23010AK  24136.57779399 -.00001791  00000-0 -14231-3 0  9997,2 55302  70.0004 256.2999 0002492 276.8630  83.2246 14.98339940 73947,6950.162,96.106,573.759,570.295,0.0
55302.0,STARLINK-5321,PAYLOAD,2024-05-15 17:04:16,14.98349693,0.0003043,69.9989,255.9609,280.6916,79.39,1.4853e-05,8.4e-07,0.0,0 STARLINK-5321,1 55302U 23010AK  24136.71130158  .00000084  00000-0  14853-4 0  9990,2 55302  69.9989 255.9609 0003043 280.6916  79.3900 14.98349693 73650,6950.132,96.106,574.112,569.882,0.0
55302.0,STARLINK-5321,PAYLOAD,2024-05-16 01:04:57,14.9834645,0.0002584,70.0008,255.1223,276.2429,83.8435,-0.00015513,-1.944e-05,0.0,0 STARLINK-5321,1 55302U 23010AK  24137.04510489 -.00001944  00000-0 -15513-3 0  9997,2 55302  70.0008 255.1223 0002584 276.2429  83.8435 14.98346450 73705,6950.142,96.106,573.803,570.211,0.0
55302.0,STARLINK-5321,PAYLOAD,2024-05-16 13:54:00,14.98349442,0.0002739,70.0008,253.7775,275.8408,84.2439,-0.00017083,-2.132e-05,0.0,0 STARLINK-5321,1 55302U 23010AK  24137.57917726 -.00002132  00000-0 -17083-3 0  9994,2 55302  70.0008 253.7775 0002739 275.8408  84.2439 14.98349442 74091,6950.133,96.106,573.901,570.094,0.0
55302.0,STARLINK-5321,PAYLOAD,2024-05-16 18:42:24,14.98352379,0.0002884,69.9982,253.2668,277.217,82.8661,-0.00016726,-2.089e-05,0.0,0 STARLINK-5321,1 55302U 23010AK  24137.77945197 -.00002089  00000-0 -16726-3 0  9993,2 55302  69.9982 253.2668 0002884 277.2170  82.8661 14.98352379 73811,6950.124,96.106,573.993,569.984,0.0
55302.0,STARLINK-5321,PAYLOAD,2024-05-17 01:06:59,14.98312221,0.0001485,70.0007,252.5978,283.9233,76.1761,-0.00020529,-2.54e-05,0.0,0 STARLINK-5321,1 55302U 23010AK  24138.04651988 -.00002540  00000-0 -20529-3 0  9994,2 55302  70.0007 252.5978 0001485 283.9233  76.1761 14.98312221 73851,6950.248,96.108,573.145,571.081,0.0
55302.0,STARLINK-5321,PAYLOAD,2024-05-17 13:56:03,14.98322745,0.0003286,69.9971,251.2482,275.0109,85.0675,-0.00022808,-2.813e-05,0.0,0 STARLINK-5321,1 55302U 23010AK  24138.58059254 -.00002813  00000-0 -22808-3 0  9996,2 55302  69.9971 251.2482 0003286 275.0109  85.0675 14.98322745 74248,6950.215,96.107,574.364,569.796,0.0
55302.0,STARLINK-5321,PAYLOAD,2024-05-17 17:08:19,14.98322377,0.0003234,69.9969,250.9103,277.1935,82.8856,-0.00019493,-2.418e-05,0.0,0 STARLINK-5321,1 55302U 23010AK  24138.71411261 -.00002418  00000-0 -19493-3 0  9998,2 55302  69.9969 250.9103 0003234 277.1935  82.8856 14.98322377 73958,6950.216,96.107,574.329,569.834,0.0
